GLOBALSTAR M035 [-]     
1 25851U 99037A   24015.56858465 -.00000062  00000+0  71328-4 0  9991
2 25851  51.9944 131.5170 0013503 216.3391 230.4639 11.04528059 38957
GLOBALSTAR M032 [-]     
1 25852U 99037B   24015.89603463 -.00000007  00000+0  19131-2 0  9995
2 25852  51.9991 351.7506 0009362  13.5116 346.5933 11.19049587 76766
GLOBALSTAR M051 [-]     
1 25853U 99037C   24015.80250869 -.00000078  00000+0 -15503-3 0  9994
2 25853  51.9755 211.4188 0002138  38.9449 321.1516 11.42195806 73155
GLOBALSTAR M030 [-]     
1 25854U 99037D   24015.91098746 -.00000093  00000+0 -37238-3 0  9997
2 25854  51.9894  50.2145 0004412 193.3219 166.7482 11.55086854 90150
GLOBALSTAR M048 [-]     
1 25872U 99041A   24015.58038969 -.00000052  00000+0  49797-3 0  9993
2 25872  51.9363 126.9311 0012801  11.4654  82.0323 11.33842486 66155
GLOBALSTAR M026 [-]     
1 25873U 99041B   24015.87119230 -.00000031  00000+0  12150-2 0  9996
2 25873  51.9991 254.2699 0002097  95.2424  33.1795 11.06835112 91097
GLOBALSTAR M043 [-]     
1 25874U 99041C   24015.87791569 -.00000069  00000+0 -26849-4 0  9992
2 25874  51.9358 213.2135 0013485 144.9527 320.3410 11.25674136 64503
GLOBALSTAR M028 [-]     
1 25875U 99041D   24015.19838819 -.00000028  00000+0  46993-3 0  9993
2 25875  51.9638 300.5543 0064130  24.6680 335.7227 12.50548281125240
